[{"OBJECT_NAME":"STARLINK-35640","OBJECT_ID":"2025-265W","EPOCH":"2026-03-09T23:05:29.944032","MEAN_MOTION":15.27593141,"ECCENTRICITY":1.627e-5,"INCLINATION":42.9995,"RA_OF_ASC_NODE":276.5185,"ARG_OF_PERICENTER":152.7978,"MEAN_ANOMALY":207.2882,"EPHEMERIS_TYPE":0,"CLASSIFICATION_TYPE":"U","NORAD_CAT_ID":66536,"ELEMENT_SET_NO":999,"REV_AT_EPOCH":1715,"BSTAR":0.00084926025,"MEAN_MOTION_DOT":0.00023191,"MEAN_MOTION_DDOT":0},{"OBJECT_NAME":"ELECTRON KICK STAGE R\/B","OBJECT_ID":"2022-147B","EPOCH":"2026-03-09T22:28:20.187264","MEAN_MOTION":15.28920172,"ECCENTRICITY":0.00095089,"INCLINATION":97.642,"RA_OF_ASC_NODE":85.1135,"ARG_OF_PERICENTER":110.4683,"MEAN_ANOMALY":249.7578,"EPHEMERIS_TYPE":0,"CLASSIFICATION_TYPE":"U","NORAD_CAT_ID":54228,"ELEMENT_SET_NO":999,"REV_AT_EPOCH":18390,"BSTAR":0.00083201931,"MEAN_MOTION_DOT":0.00023374,"MEAN_MOTION_DDOT":0}]
